[{"OBJECT_NAME":"CZ-3B DEB","OBJECT_ID":"2011-077K","EPOCH":"2026-03-01T17:47:28.273344","MEAN_MOTION":1.88720384,"ECCENTRICITY":0.7287197,"INCLINATION":25.7429,"RA_OF_ASC_NODE":111.7393,"ARG_OF_PERICENTER":208.4335,"MEAN_ANOMALY":71.031,"EPHEMERIS_TYPE":0,"CLASSIFICATION_TYPE":"U","NORAD_CAT_ID":40186,"ELEMENT_SET_NO":999,"REV_AT_EPOCH":9708,"BSTAR":0,"MEAN_MOTION_DOT":-1.98e-6,"MEAN_MOTION_DDOT":0},{"OBJECT_NAME":"CZ-3B DEB","OBJECT_ID":"2011-077L","EPOCH":"2026-03-02T01:56:29.766048","MEAN_MOTION":1.9099735,"ECCENTRICITY":0.73913068,"INCLINATION":26.6258,"RA_OF_ASC_NODE":22.4425,"ARG_OF_PERICENTER":352.0824,"MEAN_ANOMALY":0.5338,"EPHEMERIS_TYPE":0,"CLASSIFICATION_TYPE":"U","NORAD_CAT_ID":40187,"ELEMENT_SET_NO":999,"REV_AT_EPOCH":9256,"BSTAR":0.0048502643,"MEAN_MOTION_DOT":-1.59e-6,"MEAN_MOTION_DDOT":0},{"OBJECT_NAME":"CZ-3B DEB","OBJECT_ID":"2011-077N","EPOCH":"2026-03-01T19:41:45.830112","MEAN_MOTION":1.90441824,"ECCENTRICITY":0.73779189,"INCLINATION":26.6073,"RA_OF_ASC_NODE":45.137,"ARG_OF_PERICENTER":305.7256,"MEAN_ANOMALY":6.2003,"EPHEMERIS_TYPE":0,"CLASSIFICATION_TYPE":"U","NORAD_CAT_ID":40189,"ELEMENT_SET_NO":999,"REV_AT_EPOCH":9228,"BSTAR":0.0042486306,"MEAN_MOTION_DOT":-4.28e-6,"MEAN_MOTION_DDOT":0},{"OBJECT_NAME":"CZ-3B DEB","OBJECT_ID":"2011-077Q","EPOCH":"2026-03-01T17:39:20.752704","MEAN_MOTION":1.95031896,"ECCENTRICITY":0.74307291,"INCLINATION":26.6592,"RA_OF_ASC_NODE":281.425,"ARG_OF_PERICENTER":154.1314,"MEAN_ANOMALY":279.3165,"EPHEMERIS_TYPE":0,"CLASSIFICATION_TYPE":"U","NORAD_CAT_ID":40191,"ELEMENT_SET_NO":999,"REV_AT_EPOCH":7769,"BSTAR":0.0062249457,"MEAN_MOTION_DOT":4.42e-6,"MEAN_MOTION_DDOT":0},{"OBJECT_NAME":"CZ-3B DEB","OBJECT_ID":"2011-077S","EPOCH":"2026-02-28T03:45:20.332512","MEAN_MOTION":1.8680789,"ECCENTRICITY":0.74189493,"INCLINATION":26.2373,"RA_OF_ASC_NODE":59.0759,"ARG_OF_PERICENTER":289.7902,"MEAN_ANOMALY":8.732,"EPHEMERIS_TYPE":0,"CLASSIFICATION_TYPE":"U","NORAD_CAT_ID":40193,"ELEMENT_SET_NO":999,"REV_AT_EPOCH":7412,"BSTAR":0.0012022381,"MEAN_MOTION_DOT":-3.15e-6,"MEAN_MOTION_DDOT":0},{"OBJECT_NAME":"CZ-3C DEB","OBJECT_ID":"2012-008G","EPOCH":"2026-03-02T16:44:46.012128","MEAN_MOTION":2.19848753,"ECCENTRICITY":0.6975694,"INCLINATION":20.6042,"RA_OF_ASC_NODE":282.0429,"ARG_OF_PERICENTER":94.6559,"MEAN_ANOMALY":340.9096,"EPHEMERIS_TYPE":0,"CLASSIFICATION_TYPE":"U","NORAD_CAT_ID":40197,"ELEMENT_SET_NO":999,"REV_AT_EPOCH":9863,"BSTAR":0,"MEAN_MOTION_DOT":-2.31e-6,"MEAN_MOTION_DDOT":0},{"OBJECT_NAME":"CZ-3C DEB","OBJECT_ID":"2012-008H","EPOCH":"2026-03-02T12:14:10.527648","MEAN_MOTION":2.1883562,"ECCENTRICITY":0.7255381,"INCLINATION":19.6616,"RA_OF_ASC_NODE":43.6416,"ARG_OF_PERICENTER":203.3871,"MEAN_ANOMALY":91.4204,"EPHEMERIS_TYPE":0,"CLASSIFICATION_TYPE":"U","NORAD_CAT_ID":40198,"ELEMENT_SET_NO":999,"REV_AT_EPOCH":9727,"BSTAR":0.00032992,"MEAN_MOTION_DOT":-9.0e-8,"MEAN_MOTION_DDOT":0},{"OBJECT_NAME":"CZ-3C DEB","OBJECT_ID":"2012-008K","EPOCH":"2026-02-25T13:20:04.040448","MEAN_MOTION":2.19222854,"ECCENTRICITY":0.69841431,"INCLINATION":20.9232,"RA_OF_ASC_NODE":289.241,"ARG_OF_PERICENTER":71.2543,"MEAN_ANOMALY":348.4429,"EPHEMERIS_TYPE":0,"CLASSIFICATION_TYPE":"U","NORAD_CAT_ID":40200,"ELEMENT_SET_NO":999,"REV_AT_EPOCH":9627,"BSTAR":0,"MEAN_MOTION_DOT":-1.7e-6,"MEAN_MOTION_DDOT":0},{"OBJECT_NAME":"CZ-3C DEB","OBJECT_ID":"2012-008L","EPOCH":"2026-02-27T07:45:33.311808","MEAN_MOTION":2.24695342,"ECCENTRICITY":0.70678444,"INCLINATION":21.207,"RA_OF_ASC_NODE":112.6687,"ARG_OF_PERICENTER":13.3039,"MEAN_ANOMALY":358.4967,"EPHEMERIS_TYPE":0,"CLASSIFICATION_TYPE":"U","NORAD_CAT_ID":40201,"ELEMENT_SET_NO":999,"REV_AT_EPOCH":10072,"BSTAR":0.010665371,"MEAN_MOTION_DOT":5.3e-7,"MEAN_MOTION_DDOT":0},{"OBJECT_NAME":"CZ-3C DEB","OBJECT_ID":"2012-008R","EPOCH":"2026-02-24T03:47:54.445056","MEAN_MOTION":2.19230436,"ECCENTRICITY":0.723611,"INCLINATION":18.2689,"RA_OF_ASC_NODE":42.2628,"ARG_OF_PERICENTER":249.8835,"MEAN_ANOMALY":24.0175,"EPHEMERIS_TYPE":0,"CLASSIFICATION_TYPE":"U","NORAD_CAT_ID":40206,"ELEMENT_SET_NO":999,"REV_AT_EPOCH":9137,"BSTAR":-0.0028364,"MEAN_MOTION_DOT":-4.41e-6,"MEAN_MOTION_DDOT":0},{"OBJECT_NAME":"CZ-3C DEB","OBJECT_ID":"2012-008S","EPOCH":"2026-03-02T18:54:17.182368","MEAN_MOTION":2.24310912,"ECCENTRICITY":0.7216466,"INCLINATION":19.6349,"RA_OF_ASC_NODE":349.5206,"ARG_OF_PERICENTER":310.1702,"MEAN_ANOMALY":6.4204,"EPHEMERIS_TYPE":0,"CLASSIFICATION_TYPE":"U","NORAD_CAT_ID":40207,"ELEMENT_SET_NO":999,"REV_AT_EPOCH":9303,"BSTAR":0.0029538,"MEAN_MOTION_DOT":4.08e-6,"MEAN_MOTION_DDOT":0},{"OBJECT_NAME":"BREEZE-M R/B","OBJECT_ID":"2014-058B","EPOCH":"2026-03-01T19:05:01.049856","MEAN_MOTION":0.91687354,"ECCENTRICITY":0.06389683,"INCLINATION":10.2164,"RA_OF_ASC_NODE":60.765,"ARG_OF_PERICENTER":196.3463,"MEAN_ANOMALY":161.6386,"EPHEMERIS_TYPE":0,"CLASSIFICATION_TYPE":"U","NORAD_CAT_ID":40259,"ELEMENT_SET_NO":999,"REV_AT_EPOCH":3824,"BSTAR":0,"MEAN_MOTION_DOT":-2.05e-6,"MEAN_MOTION_DDOT":0},{"OBJECT_NAME":"HIMAWARI-8","OBJECT_ID":"2014-060A","EPOCH":"2026-03-02T20:00:38.438208","MEAN_MOTION":1.00270021,"ECCENTRICITY":8.68e-5,"INCLINATION":0.0178,"RA_OF_ASC_NODE":119.6241,"ARG_OF_PERICENTER":185.8972,"MEAN_ANOMALY":295.8861,"EPHEMERIS_TYPE":0,"CLASSIFICATION_TYPE":"U","NORAD_CAT_ID":40267,"ELEMENT_SET_NO":999,"REV_AT_EPOCH":4169,"BSTAR":0,"MEAN_MOTION_DOT":-2.92e-6,"MEAN_MOTION_DDOT":0},{"OBJECT_NAME":"IRNSS-1C","OBJECT_ID":"2014-061A","EPOCH":"2026-03-02T17:12:51.453216","MEAN_MOTION":1.00270095,"ECCENTRICITY":0.0019785,"INCLINATION":6.2443,"RA_OF_ASC_NODE":91.009,"ARG_OF_PERICENTER":356.5473,"MEAN_ANOMALY":54.1426,"EPHEMERIS_TYPE":0,"CLASSIFICATION_TYPE":"U","NORAD_CAT_ID":40269,"ELEMENT_SET_NO":999,"REV_AT_EPOCH":4162,"BSTAR":0,"MEAN_MOTION_DOT":-1.75e-6,"MEAN_MOTION_DDOT":0},{"OBJECT_NAME":"INTELSAT 30 (IS-30)","OBJECT_ID":"2014-062A","EPOCH":"2026-03-02T13:39:48.606048","MEAN_MOTION":1.00271399,"ECCENTRICITY":0.0001224,"INCLINATION":0.0132,"RA_OF_ASC_NODE":80.197,"ARG_OF_PERICENTER":39.8897,"MEAN_ANOMALY":150.1612,"EPHEMERIS_TYPE":0,"CLASSIFICATION_TYPE":"U","NORAD_CAT_ID":40271,"ELEMENT_SET_NO":999,"REV_AT_EPOCH":572,"BSTAR":0,"MEAN_MOTION_DOT":-1.68e-6,"MEAN_MOTION_DDOT":0},{"OBJECT_NAME":"ARSAT 1","OBJECT_ID":"2014-062B","EPOCH":"2026-03-02T12:03:42.818688","MEAN_MOTION":1.00271522,"ECCENTRICITY":0.0001653,"INCLINATION":0.0359,"RA_OF_ASC_NODE":72.5355,"ARG_OF_PERICENTER":251.2285,"MEAN_ANOMALY":305.6218,"EPHEMERIS_TYPE":0,"CLASSIFICATION_TYPE":"U","NORAD_CAT_ID":40272,"ELEMENT_SET_NO":999,"REV_AT_EPOCH":4155,"BSTAR":0,"MEAN_MOTION_DOT":-2.77e-6,"MEAN_MOTION_DDOT":0},{"OBJECT_NAME":"EUTELSAT 53A","OBJECT_ID":"2014-064A","EPOCH":"2026-03-02T21:41:08.259648","MEAN_MOTION":1.00270311,"ECCENTRICITY":0.0001346,"INCLINATION":0.022,"RA_OF_ASC_NODE":243.7049,"ARG_OF_PERICENTER":137.7604,"MEAN_ANOMALY":157.4722,"EPHEMERIS_TYPE":0,"CLASSIFICATION_TYPE":"U","NORAD_CAT_ID":40277,"ELEMENT_SET_NO":999,"REV_AT_EPOCH":4050,"BSTAR":0,"MEAN_MOTION_DOT":8.2e-7,"MEAN_MOTION_DDOT":0}]
