CZ-3B DEB               
1 40186U 11077K   26060.74129946 -.00000198  00000+0  00000+0 0  9998
2 40186  25.7429 111.7393 7287197 208.4335  71.0310  1.88720384 97088
CZ-3B DEB               
1 40187U 11077L   26061.08090007 -.00000159  00000+0  48503-2 0  9992
2 40187  26.6258  22.4425 7391306 352.0824   0.5338  1.90997350 92567
CZ-3B DEB               
1 40189U 11077N   26060.82066933 -.00000428  00000+0  42486-2 0  9999
2 40189  26.6073  45.1370 7377918 305.7256   6.2003  1.90441824 92283
CZ-3B DEB               
1 40191U 11077Q   26060.73565686  .00000442  00000+0  62249-2 0  9995
2 40191  26.6592 281.4250 7430729 154.1314 279.3165  1.95031896 77694
CZ-3B DEB               
1 40193U 11077S   26059.15648533 -.00000315  00000+0  12022-2 0  9998
2 40193  26.2373  59.0759 7418949 289.7902   8.7320  1.86807890 74127
CZ-3C DEB               
1 40197U 12008G   26061.69775477 -.00000231  00000+0  00000+0 0  9994
2 40197  20.6042 282.0429 6975694  94.6559 340.9096  2.19848753 98632
CZ-3C DEB               
1 40198U 12008H   26061.50984407 -.00000009  00000+0  32992-3 0  9992
2 40198  19.6616  43.6416 7255381 203.3871  91.4204  2.18835620 97272
CZ-3C DEB               
1 40200U 12008K   26056.55560232 -.00000170  00000+0  00000+0 0  9991
2 40200  20.9232 289.2410 6984143  71.2543 348.4429  2.19222854 96272
CZ-3C DEB               
1 40201U 12008L   26058.32330222  .00000053  00000+0  10665-1 0  9992
2 40201  21.2070 112.6687 7067844  13.3039 358.4967  2.24695342100726
CZ-3C DEB               
1 40206U 12008R   26055.15826904 -.00000441  00000+0 -28364-2 0  9991
2 40206  18.2689  42.2628 7236110 249.8835  24.0175  2.19230436 91370
CZ-3C DEB               
1 40207U 12008S   26061.78769887  .00000408  00000+0  29538-2 0  9999
2 40207  19.6349 349.5206 7216466 310.1702   6.4204  2.24310912 93037
BREEZE-M R/B            
1 40259U 14058B   26060.79515104 -.00000205  00000+0  00000+0 0  9990
2 40259  10.2164  60.7650 0638968 196.3463 161.6386  0.91687354 38243
HIMAWARI-8              
1 40267U 14060A   26061.83377822 -.00000292  00000+0  00000+0 0  9997
2 40267   0.0178 119.6241 0000868 185.8972 295.8861  1.00270021 41695
IRNSS-1C                
1 40269U 14061A   26061.71726219 -.00000175  00000+0  00000+0 0  9995
2 40269   6.2443  91.0090 0019785 356.5473  54.1426  1.00270095 41623
INTELSAT 30 (IS-30)     
1 40271U 14062A   26061.56931257 -.00000168  00000+0  00000+0 0  9994
2 40271   0.0132  80.1970 0001224  39.8897 150.1612  1.00271399  5722
ARSAT 1                 
1 40272U 14062B   26061.50257892 -.00000277  00000+0  00000+0 0  9996
2 40272   0.0359  72.5355 0001653 251.2285 305.6218  1.00271522 41551
EUTELSAT 53A            
1 40277U 14064A   26061.90356782  .00000082  00000+0  00000+0 0  9998
2 40277   0.0220 243.7049 0001346 137.7604 157.4722  1.00270311 40509
